     2.10           N: GPS NAV DATA                         RINEX VERSION / TYPE
sbf2rin-12.1.2                          12-APR-21 20:15     PGM / RUN BY / DATE 
    1.1176E-08  1.4901E-08 -5.9605E-08 -5.9605E-08          ION ALPHA           
    8.8064E+04  1.6384E+04 -1.9661E+05 -1.3107E+05          ION BETA            
   -9.313225746155E-10 4.440892098501E-15    61440     2153 DELTA-UTC: A0,A1,T,W
    18                                                      LEAP SECONDS        
                                                            END OF HEADER       
01 21  4  7 22  0  0.0 7.220599800348E-04-9.663381206337E-12 0.000000000000E+00
    7.500000000000E+01 5.800000000000E+01 4.255534402946E-09 1.380861138981E+00
    3.095716238022E-06 1.066268025897E-02 5.500391125679E-06 5.153687360764E+03
    3.384000000000E+05-2.011656761169E-07-2.561583185342E+00 1.937150955200E-07
    9.839375419309E-01 2.881250000000E+02 8.275791108947E-01-8.181055059495E-09
    2.153661137202E-10 1.000000000000E+00 2.152000000000E+03 0.000000000000E+00
    2.800000000000E+00 0.000000000000E+00 4.656612873077E-09 7.500000000000E+01
    3.312180000000E+05 4.000000000000E+00
02 21  4  8  0  0  0.0-5.936096422374E-04-3.524291969370E-12 0.000000000000E+00
    8.500000000000E+01 7.275000000000E+01 4.586976780280E-09 2.688827567272E+00
    3.837049007416E-06 2.027298393659E-02 4.678964614868E-06 5.153649946213E+03
    3.456000000000E+05 3.166496753693E-07-2.644405285912E+00-1.620501279831E-07
    9.627059529100E-01 2.828437500000E+02-1.526512301433E+00-7.927473068216E-09
    1.664355041354E-10 1.000000000000E+00 2.152000000000E+03 0.000000000000E+00
    2.000000000000E+00 0.000000000000E+00-1.769512891769E-08 8.500000000000E+01
    3.384180000000E+05 4.000000000000E+00
03 21  4  8  0  0  0.0-1.305192708969E-04-1.068656274583E-11 0.000000000000E+00
    1.090000000000E+02-7.225000000000E+01 4.603763193788E-09 1.341354648577E+00
   -3.786757588387E-06 3.359208581969E-03 4.276633262634E-06 5.153620895386E+03
    3.456000000000E+05-3.725290298462E-08-1.523423197765E+00 2.048909664154E-08
    9.684399320047E-01 3.018125000000E+02 8.283216705567E-01-8.281773540539E-09
   -3.242992226500E-10 1.000000000000E+00 2.152000000000E+03 0.000000000000E+00
    2.000000000000E+00 0.000000000000E+00 1.862645149231E-09 1.090000000000E+02
    3.389760000000E+05 4.000000000000E+00
04 21  4  7 18  0  0.0-1.905937679112E-04-2.046363078989E-12 0.000000000000E+00
    1.350000000000E+02-2.540625000000E+01 4.187317275715E-09 9.367796125396E-01
   -1.305714249611E-06 1.172819291241E-03 1.178309321404E-05 5.153768590927E+03
    3.240000000000E+05-5.587935447693E-08-4.426675634523E-01 1.080334186554E-07
    9.607084406770E-01 1.522500000000E+02-2.958328669189E+00-7.783895659069E-09
    2.260808457461E-10 1.000000000000E+00 2.152000000000E+03 0.000000000000E+00
    2.000000000000E+00 0.000000000000E+00-4.190951585770E-09 3.910000000000E+02
    3.189120000000E+05 4.000000000000E+00
05 21  4  7 18  0  0.0-3.842264413834E-05-1.136868377216E-12 0.000000000000E+00
    5.100000000000E+01-8.368750000000E+01 4.761984070036E-09 2.042299908846E+00
   -4.438683390617E-06 6.002778070979E-03 4.110857844353E-06 5.153851152420E+03
    3.240000000000E+05-7.450580596924E-09-1.559447356510E+00-7.823109626770E-08
    9.553955142752E-01 3.011562500000E+02 8.822051024922E-01-8.396421173216E-09
   -2.482246252663E-10 1.000000000000E+00 2.152000000000E+03 0.000000000000E+00
    2.000000000000E+00 0.000000000000E+00-1.117587089539E-08 5.100000000000E+01
    3.188460000000E+05 4.000000000000E+00
05 21  4  9 18  0  0.0-3.861170262098E-05-1.136868377216E-12 0.000000000000E+00
    2.100000000000E+01-2.675000000000E+01 4.990922177656E-09 2.111725465842E+00
   -1.529231667519E-06 6.005137343891E-03 2.872198820114E-06 5.153846433640E+03
    4.968000000000E+05-1.676380634308E-08-1.560911959871E+00-7.264316082001E-08
    9.553627434473E-01 3.241875000000E+02 8.818993818720E-01-8.519640591513E-09
   -1.478633019572E-10 1.000000000000E+00 2.152000000000E+03 0.000000000000E+00
    2.000000000000E+00 0.000000000000E+00-1.117587089539E-08 2.100000000000E+01
    4.927380000000E+05 4.000000000000E+00
06 21  4  8  0  0  0.0 5.651265382767E-06 2.614797267597E-12 0.000000000000E+00
    8.500000000000E+01 6.212500000000E+01 4.267677765909E-09 2.689915356583E+00
    3.473833203316E-06 2.299159648828E-03 5.301088094711E-06 5.153740942001E+03
    3.456000000000E+05 1.378357410431E-07-2.569892258671E+00 6.891787052155E-08
    9.834165704704E-01 2.882187500000E+02-1.003418708508E+00-8.064621638148E-09
    2.742971398626E-10 1.000000000000E+00 2.152000000000E+03 0.000000000000E+00
    2.000000000000E+00 0.000000000000E+00 3.725290298462E-09 8.500000000000E+01
    3.384180000000E+05 4.000000000000E+00
07 21  4  7 20  0  0.0 1.149871386588E-04 1.170974428533E-11 0.000000000000E+00
    2.400000000000E+01 4.771875000000E+01 5.053781938875E-09-2.566594548736E-01
    2.697110176086E-06 1.470052904915E-02 6.424263119698E-06 5.153584333420E+03
    3.312000000000E+05 3.539025783539E-08 5.791329345485E-01 2.142041921616E-07
    9.520948755789E-01 2.537812500000E+02-2.343387113468E+00-8.543927317439E-09
    4.243033882249E-10 1.000000000000E+00 2.152000000000E+03 0.000000000000E+00
    2.000000000000E+00 0.000000000000E+00-1.117587089539E-08 2.400000000000E+01
    3.240180000000E+05 4.000000000000E+00
07 21  4  9 18  0  0.0 1.169336028397E-04 1.170974428533E-11 0.000000000000E+00
    3.600000000000E+01 7.640625000000E+01 4.810200364153E-09-1.234517448664E+00
    4.133209586143E-06 1.471893477719E-02 7.851049304008E-06 5.153588464737E+03
    4.968000000000E+05 3.837049007416E-07 5.777692286475E-01 1.024454832077E-07
    9.521647562497E-01 2.185000000000E+02-2.342861071533E+00-8.187841056445E-09
    6.050252017282E-10 1.000000000000E+00 2.152000000000E+03 0.000000000000E+00
    2.000000000000E+00 0.000000000000E+00-1.117587089539E-08 3.600000000000E+01
    4.927380000000E+05 4.000000000000E+00
08 21  4  7 20  0  0.0-1.665856689215E-05-1.364242052659E-12 0.000000000000E+00
    1.540000000000E+02 2.281250000000E+01 4.224104522337E-09 2.550688246312E+00
    1.272186636925E-06 6.334513192996E-03 1.068226993084E-05 5.153586692810E+03
    3.312000000000E+05-1.527369022369E-07 2.648236595215E+00 7.450580596924E-08
    9.678969919033E-01 1.792187500000E+02 2.179075434667E-02-7.783181343601E-09
   -1.353627812603E-10 1.000000000000E+00 2.152000000000E+03 0.000000000000E+00
    2.800000000000E+00 0.000000000000E+00 5.122274160385E-09 1.540000000000E+02
    3.240180000000E+05 4.000000000000E+00
08 21  4  9 18  0  0.0-1.690117642283E-05-1.477928890381E-12 0.000000000000E+00
    9.400000000000E+01-2.981250000000E+01 4.307322274405E-09 1.572319746777E+00
   -1.246109604836E-06 6.337479921058E-03 1.109018921852E-05 5.153583312988E+03
    4.968000000000E+05 9.685754776001E-08 2.646944262162E+00 9.872019290924E-08
    9.678588302223E-01 1.682187500000E+02 2.276571171184E-02-7.905686446430E-09
   -4.650193699233E-10 1.000000000000E+00 2.152000000000E+03 0.000000000000E+00
    2.000000000000E+00 0.000000000000E+00 5.122274160385E-09 9.400000000000E+01
    4.927380000000E+05 4.000000000000E+00
09 21  4  7 18  0  0.0-3.371960483491E-04-2.842170943040E-12 0.000000000000E+00
    1.800000000000E+01-3.890625000000E+01 4.330180369393E-09 1.941658165536E+00
   -1.968815922737E-06 1.912212464958E-03 1.168064773083E-05 5.153813682556E+03
    3.240000000000E+05 5.401670932770E-08-4.930906323698E-01 6.519258022308E-08
    9.535170118909E-01 1.493125000000E+02 1.836716404211E+00-7.852469944035E-09
    2.210806374674E-10 1.000000000000E+00 2.152000000000E+03 0.000000000000E+00
    2.000000000000E+00 0.000000000000E+00 1.396983861923E-09 1.800000000000E+01
    3.188460000000E+05 4.000000000000E+00
09 21  4  9 18  0  0.0-3.376831300557E-04-2.842170943040E-12 0.000000000000E+00
    3.400000000000E+01-5.881250000000E+01 4.327323107520E-09 2.011038180429E+00
   -2.996996045113E-06 1.912205130793E-03 1.157447695732E-05 5.153814039230E+03
    4.968000000000E+05 7.264316082001E-08-4.944612739654E-01 5.215406417847E-08
    9.535023007867E-01 1.510625000000E+02 1.836853968249E+00-7.908900866038E-09
   -1.539349834385E-10 1.000000000000E+00 2.152000000000E+03 0.000000000000E+00
    2.000000000000E+00 0.000000000000E+00 1.396983861923E-09 3.400000000000E+01
    4.927380000000E+05 4.000000000000E+00
11 21  4  7 22  0  0.0 2.326909452677E-05 1.057287590811E-11 0.000000000000E+00
    1.600000000000E+01 6.293750000000E+01 5.702023226440E-09 5.996301606373E-01
    3.173947334290E-06 1.531256188173E-02 8.093193173409E-06 5.154085493088E+03
    3.384000000000E+05-1.229345798492E-07-3.056470348407E+00-2.309679985046E-07
    9.146687585509E-01 2.017812500000E+02 2.091638425890E+00-8.850725811113E-09
    2.239378993409E-10 1.000000000000E+00 2.152000000000E+03 0.000000000000E+00
    2.000000000000E+00 6.300000000000E+01-1.257285475731E-08 1.600000000000E+01
    3.312180000000E+05 4.000000000000E+00
12 21  4  8  0  0  0.0-2.479087561369E-05-5.115907697473E-12 0.000000000000E+00
    3.100000000000E+01-2.006250000000E+01 4.441613582462E-09 1.105828259580E+00
   -1.184642314911E-06 8.486247039400E-03 6.575137376785E-06 5.153758840561E+03
    3.456000000000E+05-1.192092895508E-07 1.689402199411E+00 4.097819328308E-08
    9.738700249784E-01 2.588125000000E+02 1.195192344010E+00-8.147482232481E-09
   -3.489431063096E-10 1.000000000000E+00 2.152000000000E+03 0.000000000000E+00
    2.000000000000E+00 0.000000000000E+00-1.257285475731E-08 3.100000000000E+01
    3.384180000000E+05 4.000000000000E+00
